{"type":"FeatureCollection","features":[{"type":"Feature","geometry":{"type":"Polygon","coordinates":[[[35.2334,45.7917],[34.9751,45.762],[34.7991,45.8105],[34.8022,45.9006],[34.6699,45.9676],[34.5612,45.9944],[34.4762,45.9441],[34.3295,46.0606],[34.1844,46.0669],[34.1175,46.1073],[34.0526,46.1091],[33.8113,46.2038],[33.74,46.1852],[33.6459,46.2302],[33.6356,46.1463],[33.5721,46.1026],[33.5912,46.0612],[33.5407,46.012],[32.7727,45.8266],[32.4468,45.8707],[32.2476,45.9205],[32.0608,45.9515],[31.8925,45.9971],[31.6162,46.0357],[31.4248,46.0903],[31.2959,46.1821],[31.2397,46.2838],[31.2373,46.4032],[31.1591,46.4097],[31.3815,46.4076],[31.8306,46.3533],[31.8072,46.479],[31.8457,46.4979],[31.9402,46.651],[32.087,46.6835],[32.0757,46.73],[32.2187,46.7713],[32.2522,46.8196],[32.3416,46.7954],[32.3654,46.8293],[32.4633,46.8404],[32.532,46.8238],[32.5855,46.8558],[32.6879,46.8621],[32.6979,46.8226],[32.9491,46.8579],[32.9153,46.8833],[32.9497,46.9465],[33.0228,46.9729],[33.0686,47.0222],[32.9103,47.0939],[32.9614,47.1896],[33.0254,47.1765],[33.0971,47.2237],[33.1306,47.3286],[33.1378,47.4195],[33.0927,47.5788],[33.2085,47.5695],[33.2418,47.5304],[33.3265,47.5231],[33.4861,47.5439],[33.4737,47.5873],[33.5803,47.6002],[33.5884,47.5023],[33.6436,47.4845],[33.9067,47.5118],[33.9548,47.4576],[34.1395,47.4772],[34.2427,47.4339],[34.293,47.2743],[34.4794,47.3151],[34.5195,47.1047],[34.6238,46.9734],[34.7362,46.9615],[34.7581,46.8227],[34.735,46.7473],[34.6252,46.724],[34.6322,46.6876],[34.7462,46.6832],[34.7128,46.6201],[34.7576,46.5493],[34.8912,46.5626],[34.8904,46.5068],[35.0535,46.4816],[35.0735,46.2999],[35.1282,46.3021],[35.2781,46.2646],[35.468,46.1465],[35.3274,45.9853],[35.2419,45.9454],[35.151,45.9315],[35.2334,45.7917]]]},"properties":{"shapeISO":"UA-65","shapeName":"Kherson Oblast"}},{"type":"Feature","geometry":{"type":"Polygon","coordinates":[[[25.1128,50.2873],[24.9368,50.3457],[24.7673,50.3385],[24.6543,50.4101],[24.5967,50.4139],[24.5974,50.4785],[24.5306,50.5516],[24.4503,50.5392],[24.4015,50.5901],[24.3182,50.5739],[24.2168,50.5915],[24.1726,50.6335],[24.0982,50.6374],[23.9634,50.7813],[24.0069,50.8412],[24.1002,50.8359],[23.9704,50.9503],[23.8605,51.1578],[23.7503,51.2108],[23.7037,51.282],[23.6358,51.3285],[23.6963,51.4079],[23.6494,51.4463],[23.6645,51.5773],[23.6059,51.6208],[23.7827,51.6675],[23.8803,51.6084],[23.9953,51.5805],[24.1206,51.6668],[24.2684,51.7162],[24.3197,51.7511],[24.2998,51.8143],[24.3875,51.8818],[24.7141,51.8965],[24.8102,51.9119],[24.9342,51.8912],[25.1002,51.9531],[25.2636,51.9685],[25.41,51.9217],[25.5929,51.9243],[25.7087,51.8947],[25.6392,51.8482],[25.683,51.7559],[25.6087,51.6411],[25.5715,51.5497],[25.6415,51.4789],[25.6466,51.4169],[25.7554,51.3812],[26.0656,51.1793],[26.0588,51.1426],[25.9597,51.1258],[26.0912,51.0508],[26.0848,50.9734],[26.0007,50.9353],[25.9917,50.8658],[25.9025,50.8318],[25.8693,50.6872],[25.8237,50.647],[25.7426,50.6698],[25.6943,50.7248],[25.3555,50.6411],[25.2703,50.5328],[25.1917,50.5513],[25.1494,50.4442],[25.1662,50.331],[25.1128,50.2873]]]},"properties":{"shapeISO":"UA-07","shapeName":"Volyn Oblast"}},{"type":"Feature","geometry":{"type":"Polygon","coordinates":[[[25.1128,50.2873],[25.1662,50.331],[25.1494,50.4442],[25.1917,50.5513],[25.2703,50.5328],[25.3555,50.6411],[25.6943,50.7248],[25.7426,50.6698],[25.8237,50.647],[25.8693,50.6872],[25.9025,50.8318],[25.9917,50.8658],[26.0007,50.9353],[26.0848,50.9734],[26.0912,51.0508],[25.9597,51.1258],[26.0588,51.1426],[26.0656,51.1793],[25.7554,51.3812],[25.6466,51.4169],[25.6415,51.4789],[25.5715,51.5497],[25.6087,51.6411],[25.683,51.7559],[25.6392,51.8482],[25.7087,51.8947],[25.5929,51.9243],[25.9978,51.932],[26.0998,51.9113],[26.1633,51.8658],[26.3699,51.8632],[26.4758,51.7995],[26.6151,51.825],[26.7551,51.8034],[26.9505,51.7362],[26.9937,51.7686],[27.2074,51.7739],[27.2132,51.6665],[27.2674,51.6062],[27.3928,51.6049],[27.5556,51.6362],[27.6214,51.6071],[27.7276,51.6046],[27.6688,51.5178],[27.5057,51.4365],[27.5222,51.3419],[27.4415,51.3104],[27.4589,51.224],[27.3999,51.2009],[27.3671,51.0982],[27.3181,51.0528],[27.2006,51.001],[27.2568,50.896],[27.232,50.8392],[27.2758,50.7209],[27.2056,50.6672],[27.2251,50.606],[27.1959,50.5622],[27.0568,50.5516],[26.7897,50.504],[26.6479,50.365],[26.4712,50.2604],[26.3625,50.2512],[26.2737,50.1787],[26.2205,50.1797],[26.1658,50.2309],[26.065,50.2575],[25.9631,50.2563],[25.8576,50.1914],[25.6254,50.1521],[25.4761,50.1662],[25.4316,50.053],[25.3467,50.0041],[25.1973,50.131],[25.1699,50.2023],[25.2035,50.2536],[25.1128,50.2873]]]},"properties":{"shapeISO":"UA-56","shapeName":"Rivne Oblast"}},{"type":"Feature","geometry":{"type":"Polygon","coordinates":[[[27.1959,50.5622],[27.2251,50.606],[27.2056,50.6672],[27.2758,50.7209],[27.232,50.8392],[27.2568,50.896],[27.2006,51.001],[27.3181,51.0528],[27.3671,51.0982],[27.3999,51.2009],[27.4589,51.224],[27.4415,51.3104],[27.5222,51.3419],[27.5057,51.4365],[27.6688,51.5178],[27.742,51.4774],[27.8053,51.5311],[27.8565,51.6334],[27.9181,51.6172],[27.9458,51.5582],[28.1173,51.5831],[28.1737,51.6439],[28.2644,51.6814],[28.2868,51.6234],[28.3617,51.5579],[28.4715,51.5935],[28.6353,51.574],[28.6878,51.4447],[28.7667,51.4905],[28.8237,51.5588],[28.9054,51.5888],[29.0017,51.5733],[29.1227,51.6582],[29.2645,51.5515],[29.251,51.4956],[29.3592,51.3855],[29.3988,51.3212],[29.3558,51.2751],[29.2683,51.2652],[29.3122,51.1397],[29.4249,51.1257],[29.5116,51.0605],[29.4118,50.9852],[29.5213,50.8692],[29.4887,50.8124],[29.5974,50.7296],[29.5286,50.6633],[29.4444,50.621],[29.5031,50.5524],[29.4583,50.5167],[29.5894,50.375],[29.6748,50.321],[29.6868,50.2264],[29.6432,50.18],[29.6477,50.1064],[29.7352,49.9444],[29.6423,49.8979],[29.5956,49.8431],[29.5071,49.8354],[29.4485,49.8024],[29.5055,49.6493],[29.4087,49.6593],[29.3799,49.6191],[29.2755,49.5896],[29.0269,49.5904],[28.9641,49.6723],[29.0048,49.7265],[28.9637,49.7554],[28.9534,49.8402],[28.8439,49.8602],[28.7509,49.8444],[28.6824,49.8022],[28.4202,49.8232],[28.3793,49.7805],[28.2974,49.8014],[28.0928,49.772],[27.9822,49.7805],[27.817,49.7347],[27.781,49.7285],[27.641,49.8141],[27.5457,50.0002],[27.6101,50.0062],[27.6745,50.0694],[27.6147,50.0861],[27.6789,50.1609],[27.6082,50.215],[27.527,50.2256],[27.3132,50.3402],[27.2492,50.3927],[27.3019,50.4928],[27.1959,50.5622]]]},"properties":{"shapeISO":"UA-18","shapeName":"Zhytomyr Oblast"}},{"type":"Feature","geometry":{"type":"Polygon","coordinates":[[[29.5055,49.6493],[29.4485,49.8024],[29.5071,49.8354],[29.5956,49.8431],[29.6423,49.8979],[29.7352,49.9444],[29.6477,50.1064],[29.6432,50.18],[29.6868,50.2264],[29.6748,50.321],[29.5894,50.375],[29.4583,50.5167],[29.5031,50.5524],[29.4444,50.621],[29.5286,50.6633],[29.5974,50.7296],[29.4887,50.8124],[29.5213,50.8692],[29.4118,50.9852],[29.5116,51.0605],[29.4249,51.1257],[29.3122,51.1397],[29.2683,51.2652],[29.3558,51.2751],[29.3988,51.3212],[29.3592,51.3855],[29.4216,51.4151],[29.4957,51.3968],[29.5421,51.4827],[29.7167,51.5299],[29.7493,51.4571],[29.7973,51.4417],[29.8936,51.4853],[29.9718,51.4748],[30.0181,51.506],[30.1174,51.4874],[30.1802,51.5125],[30.3489,51.4235],[30.3502,51.3505],[30.4586,51.2752],[30.5398,51.2671],[30.5613,51.236],[30.4905,51.1651],[30.5172,51.1113],[30.5003,51.0222],[30.6008,51.0275],[30.6406,50.9998],[30.6842,50.9019],[30.7754,50.8634],[30.7707,50.7788],[30.8753,50.7468],[31.0695,50.7648],[31.1899,50.7234],[31.2016,50.6537],[31.2546,50.5428],[31.3987,50.524],[31.4181,50.5027],[31.5711,50.5281],[31.6868,50.5636],[31.7817,50.5598],[31.7833,50.6068],[31.8572,50.6319],[31.9551,50.5436],[32.0502,50.5421],[32.0222,50.4584],[32.0463,50.4019],[32.1427,50.3488],[32.0907,50.2842],[32.1162,50.2286],[32.0141,50.2065],[31.9109,50.1005],[31.9176,49.9614],[31.8133,49.9662],[31.7147,49.8512],[31.5566,49.8748],[31.475,49.8612],[31.422,49.9104],[31.4367,49.9842],[31.3109,49.9927],[31.3741,49.8984],[31.3099,49.892],[31.221,49.8323],[31.2021,49.6753],[31.0992,49.541],[30.909,49.3591],[30.7086,49.3363],[30.6078,49.3703],[30.5167,49.328],[30.413,49.3305],[30.3844,49.255],[30.1892,49.2753],[30.0268,49.3327],[29.9442,49.3017],[29.9545,49.2503],[29.8584,49.188],[29.7608,49.1794],[29.7361,49.229],[29.6395,49.2467],[29.5885,49.3199],[29.5368,49.3231],[29.5062,49.3953],[29.5895,49.4544],[29.5449,49.4845],[29.5055,49.6493]],[[30.8276,50.4054],[30.7426,50.4585],[30.755,50.5189],[30.8159,50.5651],[30.7214,50.5859],[30.6481,50.5348],[30.5303,50.5362],[30.4468,50.5858],[30.3108,50.5551],[30.2517,50.4848],[30.3581,50.4452],[30.5862,50.2454],[30.646,50.2982],[30.6125,50.3376],[30.8276,50.4054]]]},"properties":{"shapeISO":"UA-32","shapeName":"Kyiv Oblast"}},{"type":"Feature","geometry":{"type":"Polygon","coordinates":[[[32.1427,50.3488],[32.0463,50.4019],[32.0222,50.4584],[32.0502,50.5421],[31.9551,50.5436],[31.8572,50.6319],[31.7833,50.6068],[31.7817,50.5598],[31.6868,50.5636],[31.5711,50.5281],[31.4181,50.5027],[31.3987,50.524],[31.2546,50.5428],[31.2016,50.6537],[31.1899,50.7234],[31.0695,50.7648],[30.8753,50.7468],[30.7707,50.7788],[30.7754,50.8634],[30.6842,50.9019],[30.6406,50.9998],[30.6008,51.0275],[30.5003,51.0222],[30.5172,51.1113],[30.4905,51.1651],[30.5613,51.236],[30.5398,51.2671],[30.6071,51.2802],[30.6557,51.3762],[30.5108,51.5935],[30.6267,51.7136],[30.6605,51.8149],[30.8066,51.948],[30.9389,52.0197],[30.9364,52.0758],[31.1398,52.1031],[31.253,52.0422],[31.4024,52.1425],[31.7214,52.0967],[31.8678,52.1102],[31.9605,52.0521],[32.0963,52.0336],[32.1559,52.0716],[32.2907,52.103],[32.3954,52.2466],[32.3552,52.3273],[32.55,52.3269],[32.6851,52.2663],[32.833,52.2783],[32.9957,52.2719],[33.1699,52.3728],[33.4286,52.3455],[33.3664,52.2332],[33.3111,52.1883],[33.3444,52.145],[33.4907,52.0829],[33.5,52.0383],[33.355,52.0306],[33.3164,51.9368],[33.1877,51.9125],[33.0905,51.7853],[33.1598,51.6779],[33.1546,51.6073],[33.1918,51.5064],[33.1363,51.4942],[33.133,51.3822],[33.0782,51.3402],[33.0723,51.2563],[32.9605,51.1628],[32.9437,51.0908],[33.0402,51.0812],[33.1382,50.9698],[33.2003,50.9624],[33.1549,50.7925],[33.2129,50.7282],[33.1545,50.7093],[33.0662,50.5199],[32.9148,50.412],[32.75,50.3596],[32.5264,50.3457],[32.4469,50.3981],[32.339,50.4276],[32.2906,50.3797],[32.1427,50.3488]]]},"properties":{"shapeISO":"UA-74","shapeName":"Chernihiv Oblast"}},{"type":"Feature","geometry":{"type":"Polygon","coordinates":[[[33.0662,50.5199],[33.1545,50.7093],[33.2129,50.7282],[33.1549,50.7925],[33.2003,50.9624],[33.1382,50.9698],[33.0402,51.0812],[32.9437,51.0908],[32.9605,51.1628],[33.0723,51.2563],[33.0782,51.3402],[33.133,51.3822],[33.1363,51.4942],[33.1918,51.5064],[33.1546,51.6073],[33.1598,51.6779],[33.0905,51.7853],[33.1877,51.9125],[33.3164,51.9368],[33.355,52.0306],[33.5,52.0383],[33.4907,52.0829],[33.3444,52.145],[33.3111,52.1883],[33.3664,52.2332],[33.4286,52.3455],[33.5186,52.3547],[33.6053,52.3335],[33.7881,52.3663],[33.9444,52.2829],[34.1163,52.1411],[34.0808,52.0707],[34.1429,51.968],[34.4154,51.8253],[34.4358,51.7326],[34.1277,51.6891],[34.2952,51.5328],[34.296,51.4818],[34.2224,51.4288],[34.3337,51.3514],[34.2377,51.2923],[34.3309,51.2399],[34.3837,51.274],[34.4883,51.2441],[34.6617,51.2475],[34.7063,51.1753],[34.8173,51.1689],[34.9794,51.2351],[35.1395,51.2175],[35.1246,51.1621],[35.1587,51.0808],[35.2119,51.0462],[35.312,51.0812],[35.4062,51.0477],[35.3311,50.9926],[35.3332,50.9346],[35.3928,50.9244],[35.4104,50.8078],[35.4887,50.7768],[35.4593,50.6891],[35.392,50.642],[35.436,50.5301],[35.4764,50.4885],[35.5865,50.4481],[35.5842,50.3927],[35.658,50.3511],[35.4964,50.2926],[35.439,50.3169],[35.33,50.3187],[35.2604,50.2344],[35.1481,50.2422],[35.0326,50.1805],[34.9408,50.1526],[34.8541,50.1626],[34.7002,50.1497],[34.6916,50.1102],[34.5729,50.1214],[34.5234,50.1774],[34.5707,50.2272],[34.5077,50.2849],[34.4001,50.3181],[34.3742,50.3716],[34.252,50.4409],[34.219,50.5344],[34.0406,50.5061],[33.9549,50.547],[33.7865,50.4608],[33.5724,50.4949],[33.42,50.4827],[33.3177,50.5199],[33.2212,50.5035],[33.0662,50.5199]]]},"properties":{"shapeISO":"UA-59","shapeName":"Sumy Oblast"}},{"type":"Feature","geometry":{"type":"Polygon","coordinates":[[[34.9408,50.1526],[35.0326,50.1805],[35.1481,50.2422],[35.2604,50.2344],[35.33,50.3187],[35.439,50.3169],[35.4964,50.2926],[35.658,50.3511],[35.7382,50.3545],[35.8317,50.4338],[36.0393,50.4496],[36.1606,50.4315],[36.363,50.2875],[36.4734,50.3131],[36.5742,50.2745],[36.6487,50.2177],[36.693,50.2691],[36.9376,50.3505],[37.1023,50.3513],[37.2925,50.4013],[37.333,50.437],[37.4651,50.4309],[37.4847,50.3565],[37.6265,50.2933],[37.6144,50.2201],[37.7549,50.0784],[37.7969,50.0841],[37.9265,50.0338],[37.9646,49.9789],[38.0437,49.9329],[38.033,49.9002],[38.0205,49.8348],[38.0537,49.7835],[37.9508,49.7312],[38.0154,49.679],[37.975,49.6126],[37.8471,49.5203],[37.8447,49.4459],[37.8964,49.4036],[37.8769,49.3278],[37.946,49.303],[37.8744,49.2339],[37.7978,49.2021],[37.5691,49.2313],[37.5013,49.1804],[37.5846,49.1262],[37.4871,49.1001],[37.4798,49.0575],[37.385,49.0482],[37.3711,49.0049],[37.2972,48.9749],[37.328,48.922],[37.2241,48.9043],[37.1459,48.8418],[37.0238,48.8179],[36.9949,48.7874],[36.8543,48.8003],[36.6893,48.7761],[36.7356,48.7038],[36.7389,48.6259],[36.5907,48.6028],[36.4829,48.6636],[36.355,48.5396],[36.2647,48.6131],[36.258,48.6671],[36.143,48.7243],[36.1592,48.7842],[36.0193,48.8547],[36.0437,48.9154],[35.9891,48.9694],[35.932,48.9787],[35.7523,48.9467],[35.5961,48.9867],[35.4775,48.9791],[35.3521,49.041],[35.3105,49.0878],[35.2182,49.1071],[35.1912,49.1403],[35.0179,49.1508],[34.9804,49.2502],[35.0368,49.3316],[35.0912,49.3006],[35.2882,49.2964],[35.3385,49.3647],[35.3639,49.447],[35.3317,49.5049],[35.4617,49.4837],[35.41,49.5615],[35.4857,49.572],[35.4334,49.6734],[35.3447,49.665],[35.2654,49.6852],[35.2077,49.7467],[35.2194,49.8297],[35.1401,49.8597],[34.9705,49.8853],[34.8561,49.9866],[34.9649,50.0746],[34.9408,50.1526]]]},"properties":{"shapeISO":"UA-63","shapeName":"Kharkiv Oblast"}},{"type":"Feature","geometry":{"type":"Polygon","coordinates":[[[37.8744,49.2339],[37.946,49.303],[37.8769,49.3278],[37.8964,49.4036],[37.8447,49.4459],[37.8471,49.5203],[37.975,49.6126],[38.0154,49.679],[37.9508,49.7312],[38.0537,49.7835],[38.0205,49.8348],[38.033,49.9002],[38.171,49.9419],[38.2218,49.9791],[38.1782,50.08],[38.3296,50.0854],[38.3505,50.0069],[38.4887,49.9632],[38.5826,49.9775],[38.7241,49.9271],[38.8516,49.8647],[38.9491,49.796],[39.0668,49.8156],[39.1799,49.8888],[39.2852,49.7554],[39.3788,49.7385],[39.4437,49.76],[39.5913,49.7183],[39.6603,49.6149],[39.7503,49.5974],[39.806,49.558],[39.8912,49.5583],[39.9521,49.5971],[40.1354,49.6171],[40.1696,49.5688],[40.0392,49.5207],[40.0293,49.4536],[40.1946,49.3465],[40.1859,49.2812],[40.0774,49.187],[40.0311,49.1798],[39.9383,49.083],[39.6932,49.0505],[39.6637,49.0009],[39.7457,48.9869],[39.8524,48.8905],[40.0584,48.9041],[40.0801,48.8701],[39.9755,48.793],[39.8001,48.8426],[39.7791,48.7854],[39.7101,48.7242],[39.6879,48.5868],[39.7916,48.593],[39.8553,48.5609],[39.8464,48.4738],[39.9117,48.4199],[39.9373,48.2919],[39.937,48.181],[39.8765,48.1189],[39.8834,48.0416],[39.8165,48.0013],[39.7936,47.9194],[39.738,47.8278],[39.5655,47.8364],[39.3873,47.8712],[39.2417,47.8671],[39.1496,47.8424],[39.0745,47.8695],[39.0914,47.941],[39.0398,48.0069],[38.8613,48.0148],[38.8032,48.0703],[38.8204,48.1162],[38.6937,48.1577],[38.6134,48.2043],[38.567,48.2701],[38.427,48.2783],[38.4332,48.4477],[38.3435,48.4379],[38.2976,48.491],[38.2672,48.6641],[38.3156,48.7347],[38.2727,48.8248],[38.1964,48.928],[38.0052,48.9466],[38.0979,48.9988],[38.0404,49.1267],[37.9265,49.1438],[37.935,49.1918],[37.8744,49.2339]]]},"properties":{"shapeISO":"UA-09","shapeName":"Luhansk Oblast"}},{"type":"Feature","geometry":{"type":"Polygon","coordinates":[[[36.7389,48.6259],[36.7356,48.7038],[36.6893,48.7761],[36.8543,48.8003],[36.9949,48.7874],[37.0238,48.8179],[37.1459,48.8418],[37.2241,48.9043],[37.328,48.922],[37.2972,48.9749],[37.3711,49.0049],[37.385,49.0482],[37.4798,49.0575],[37.4871,49.1001],[37.5846,49.1262],[37.5013,49.1804],[37.5691,49.2313],[37.7978,49.2021],[37.8744,49.2339],[37.935,49.1918],[37.9265,49.1438],[38.0404,49.1267],[38.0979,48.9988],[38.0052,48.9466],[38.1964,48.928],[38.2727,48.8248],[38.3156,48.7347],[38.2672,48.6641],[38.2976,48.491],[38.3435,48.4379],[38.4332,48.4477],[38.427,48.2783],[38.567,48.2701],[38.6134,48.2043],[38.6937,48.1577],[38.8204,48.1162],[38.8032,48.0703],[38.8613,48.0148],[39.0398,48.0069],[39.0914,47.941],[39.0745,47.8695],[38.843,47.8653],[38.7889,47.8159],[38.789,47.7375],[38.7349,47.6996],[38.6658,47.6987],[38.6164,47.6446],[38.4565,47.644],[38.3505,47.6166],[38.2847,47.5443],[38.3024,47.3928],[38.2573,47.3732],[38.2209,47.3054],[38.336,47.3063],[38.3245,47.257],[38.2603,47.2383],[38.2285,47.1226],[38.3381,46.9808],[38.1409,46.861],[37.6201,46.8299],[37.4376,46.7158],[37.3314,46.6893],[37.1687,46.7104],[37.0625,46.884],[37.0214,46.9279],[37.0923,46.9684],[37.0812,47.0475],[37.0084,47.0845],[37.0022,47.1272],[36.9367,47.1655],[36.9466,47.311],[37.0837,47.3147],[37.1066,47.376],[37.1946,47.3734],[37.245,47.4691],[37.1577,47.4549],[37.0742,47.4937],[37.021,47.5528],[36.9443,47.5761],[36.8934,47.5449],[36.8303,47.6242],[36.7252,47.6311],[36.6713,47.7936],[36.5938,47.784],[36.5848,47.8474],[36.542,47.906],[36.5851,47.9566],[36.5878,48.08],[36.6508,48.0994],[36.8545,48.0346],[36.8965,48.0776],[36.8728,48.1839],[36.9369,48.1942],[36.9121,48.309],[36.8171,48.3126],[36.8298,48.4846],[36.8596,48.569],[36.7885,48.5668],[36.7389,48.6259]]]},"properties":{"shapeISO":"UA-14","shapeName":"Donetsk Oblast"}},{"type":"Feature","geometry":{"type":"Polygon","coordinates":[[[35.468,46.1465],[35.2781,46.2646],[35.1282,46.3021],[35.0735,46.2999],[35.0535,46.4816],[34.8904,46.5068],[34.8912,46.5626],[34.7576,46.5493],[34.7128,46.6201],[34.7462,46.6832],[34.6322,46.6876],[34.6252,46.724],[34.735,46.7473],[34.7581,46.8227],[34.7362,46.9615],[34.6238,46.9734],[34.5195,47.1047],[34.4794,47.3151],[34.293,47.2743],[34.2427,47.4339],[34.1395,47.4772],[34.3,47.5191],[34.4689,47.5321],[34.5724,47.5616],[34.7963,47.537],[34.8623,47.5151],[34.9454,47.5296],[34.9057,47.6739],[34.956,47.7123],[34.8936,47.7602],[34.864,47.8794],[34.9191,47.9335],[34.8695,47.9824],[34.8757,48.0545],[34.9147,48.0909],[35.0389,48.0984],[35.1017,48.1316],[35.295,48.1443],[35.5237,48.0744],[35.7034,48.1402],[35.8169,48.0661],[35.9666,48.0948],[36.0525,48.0591],[36.085,47.9303],[36.1302,47.8903],[36.1017,47.8426],[36.3302,47.8203],[36.4491,47.8241],[36.5848,47.8474],[36.5938,47.784],[36.6713,47.7936],[36.7252,47.6311],[36.8303,47.6242],[36.8934,47.5449],[36.9443,47.5761],[37.021,47.5528],[37.0742,47.4937],[37.1577,47.4549],[37.245,47.4691],[37.1946,47.3734],[37.1066,47.376],[37.0837,47.3147],[36.9466,47.311],[36.9367,47.1655],[37.0022,47.1272],[37.0084,47.0845],[37.0812,47.0475],[37.0923,46.9684],[37.0214,46.9279],[37.0625,46.884],[37.1687,46.7104],[37.0242,46.6389],[36.9973,46.5611],[36.9074,46.4903],[36.8291,46.4657],[36.7093,46.4629],[36.6141,46.4899],[36.5457,46.5357],[36.4988,46.5282],[36.4086,46.4393],[36.246,46.3287],[36.1565,46.3042],[36.004,46.3113],[35.8918,46.362],[35.8444,46.41],[35.5819,46.2628],[35.468,46.1465]]]},"properties":{"shapeISO":"UA-23","shapeName":"Zaporizhia Oblast"}},{"type":"Feature","geometry":{"type":"Polygon","coordinates":[[[24.0982,50.6374],[24.1726,50.6335],[24.2168,50.5915],[24.3182,50.5739],[24.4015,50.5901],[24.4503,50.5392],[24.5306,50.5516],[24.5974,50.4785],[24.5967,50.4139],[24.6543,50.4101],[24.7673,50.3385],[24.9368,50.3457],[25.1128,50.2873],[25.2035,50.2536],[25.1699,50.2023],[25.1973,50.131],[25.3467,50.0041],[25.4122,49.9696],[25.3751,49.868],[25.286,49.828],[25.0838,49.8285],[25.115,49.7456],[25.0221,49.7351],[24.9543,49.6159],[24.7213,49.5698],[24.7208,49.4968],[24.6314,49.5007],[24.4813,49.5436],[24.4014,49.495],[24.3738,49.43],[24.4005,49.3619],[24.3468,49.2432],[24.3842,49.1893],[24.2339,49.1438],[23.9695,49.138],[23.9045,49.0982],[23.7627,49.1245],[23.6992,49.0999],[23.6618,49.0267],[23.5658,48.9747],[23.5815,48.8715],[23.5516,48.8225],[23.5784,48.7787],[23.5476,48.7258],[23.4307,48.7263],[23.3173,48.7535],[23.2017,48.7603],[23.1359,48.8457],[23.0159,48.8446],[22.8973,48.905],[22.889,49.0069],[22.8757,49.0966],[22.7391,49.158],[22.7468,49.3599],[22.6967,49.4951],[22.6408,49.53],[22.8478,49.7101],[22.9706,49.8385],[23.0333,49.8814],[23.2839,50.099],[23.4701,50.2179],[23.581,50.266],[23.7031,50.3753],[23.8034,50.4048],[23.9975,50.4121],[24.0345,50.4448],[24.0913,50.562],[24.0982,50.6374]]]},"properties":{"shapeISO":"UA-46","shapeName":"Lviv Oblast"}},{"type":"Feature","geometry":{"type":"Polygon","coordinates":[[[23.5476,48.7258],[23.5784,48.7787],[23.5516,48.8225],[23.5815,48.8715],[23.5658,48.9747],[23.6618,49.0267],[23.6992,49.0999],[23.7627,49.1245],[23.9045,49.0982],[23.9695,49.138],[24.2339,49.1438],[24.3842,49.1893],[24.3468,49.2432],[24.4005,49.3619],[24.3738,49.43],[24.4014,49.495],[24.4813,49.5436],[24.6314,49.5007],[24.7208,49.4968],[24.8281,49.3858],[24.8281,49.2854],[24.9336,49.2297],[24.8568,49.1777],[24.8998,49.1291],[24.9029,49.0547],[24.9723,49.0034],[25.1109,48.9966],[25.1475,48.9436],[25.2249,48.9309],[25.2371,48.8655],[25.3671,48.8587],[25.5645,48.7934],[25.6405,48.7481],[25.628,48.6727],[25.5853,48.6334],[25.6082,48.5364],[25.6209,48.3799],[25.441,48.4019],[25.3116,48.3674],[25.1398,48.1945],[24.9116,48.0272],[24.9194,47.9464],[24.9961,47.8543],[24.9225,47.7263],[24.8219,47.8065],[24.6676,47.8717],[24.627,47.9398],[24.5632,47.9684],[24.6264,48.0492],[24.5041,48.1532],[24.5389,48.225],[24.4878,48.2798],[24.358,48.3512],[24.2588,48.3502],[24.1477,48.3895],[24.1091,48.533],[23.9074,48.4833],[23.929,48.5524],[23.804,48.5812],[23.7899,48.6402],[23.7074,48.638],[23.6245,48.7067],[23.5476,48.7258]]]},"properties":{"shapeISO":"UA-26","shapeName":"Ivano-Frankivsk Oblast"}},{"type":"Feature","geometry":{"type":"Polygon","coordinates":[[[22.889,49.0069],[22.8973,48.905],[23.0159,48.8446],[23.1359,48.8457],[23.2017,48.7603],[23.3173,48.7535],[23.4307,48.7263],[23.5476,48.7258],[23.6245,48.7067],[23.7074,48.638],[23.7899,48.6402],[23.804,48.5812],[23.929,48.5524],[23.9074,48.4833],[24.1091,48.533],[24.1477,48.3895],[24.2588,48.3502],[24.358,48.3512],[24.4878,48.2798],[24.5389,48.225],[24.5041,48.1532],[24.6264,48.0492],[24.5632,47.9684],[24.4361,47.9704],[24.3452,47.9145],[24.2171,47.9028],[24.1125,47.9147],[24.0072,47.9678],[23.8458,47.9416],[23.7512,47.9984],[23.6649,47.9835],[23.5399,48.0108],[23.495,47.9682],[23.2951,48.0444],[23.2694,48.0858],[23.114,48.0865],[23.0746,48.0086],[22.8977,47.954],[22.8363,47.9909],[22.8819,48.0539],[22.81,48.1075],[22.7347,48.1198],[22.6754,48.092],[22.5926,48.1131],[22.5648,48.1772],[22.4899,48.2534],[22.3848,48.234],[22.3384,48.2792],[22.3178,48.3545],[22.2591,48.4111],[22.1377,48.4326],[22.161,48.5673],[22.1886,48.6096],[22.3396,48.6839],[22.3457,48.7661],[22.3876,48.8],[22.3813,48.86],[22.4773,48.9912],[22.5455,49.0068],[22.5825,49.0973],[22.6865,49.0397],[22.7655,49.0535],[22.889,49.0069]]]},"properties":{"shapeISO":"UA-21","shapeName":"Zakarpattia Oblast"}},{"type":"Feature","geometry":{"type":"Polygon","coordinates":[[[25.3467,50.0041],[25.4316,50.053],[25.4761,50.1662],[25.6254,50.1521],[25.8576,50.1914],[25.9631,50.2563],[26.065,50.2575],[26.1658,50.2309],[26.2205,50.1797],[26.1987,50.0978],[26.2269,50.0473],[26.1451,49.9599],[26.1328,49.8984],[26.2011,49.8663],[26.2436,49.7453],[26.1908,49.7142],[26.2725,49.6569],[26.2021,49.6013],[26.1423,49.5095],[26.2354,49.4005],[26.2261,49.3279],[26.2584,49.2638],[26.1832,49.1959],[26.2047,49.1007],[26.1834,49.0557],[26.2119,48.9829],[26.194,48.9335],[26.2458,48.7558],[26.2478,48.6679],[26.3075,48.6576],[26.3238,48.6],[26.4433,48.5386],[26.3549,48.5075],[26.2678,48.54],[26.1996,48.5258],[26.0895,48.5404],[25.9752,48.6209],[25.875,48.5999],[25.8069,48.6664],[25.628,48.6727],[25.6405,48.7481],[25.5645,48.7934],[25.3671,48.8587],[25.2371,48.8655],[25.2249,48.9309],[25.1475,48.9436],[25.1109,48.9966],[24.9723,49.0034],[24.9029,49.0547],[24.8998,49.1291],[24.8568,49.1777],[24.9336,49.2297],[24.8281,49.2854],[24.8281,49.3858],[24.7208,49.4968],[24.7213,49.5698],[24.9543,49.6159],[25.0221,49.7351],[25.115,49.7456],[25.0838,49.8285],[25.286,49.828],[25.3751,49.868],[25.4122,49.9696],[25.3467,50.0041]]]},"properties":{"shapeISO":"UA-61","shapeName":"Ternopil Oblast"}},{"type":"Feature","geometry":{"type":"Polygon","coordinates":[[[24.9225,47.7263],[24.9961,47.8543],[24.9194,47.9464],[24.9116,48.0272],[25.1398,48.1945],[25.3116,48.3674],[25.441,48.4019],[25.6209,48.3799],[25.6082,48.5364],[25.5853,48.6334],[25.628,48.6727],[25.8069,48.6664],[25.875,48.5999],[25.9752,48.6209],[26.0895,48.5404],[26.1996,48.5258],[26.2678,48.54],[26.3549,48.5075],[26.4433,48.5386],[26.4943,48.5404],[26.5515,48.4653],[26.5963,48.4512],[26.7139,48.4974],[26.7899,48.5547],[26.898,48.5469],[26.9644,48.5761],[27.1094,48.5564],[27.2349,48.6061],[27.3125,48.6],[27.373,48.6306],[27.4517,48.5965],[27.4786,48.5068],[27.5332,48.4694],[27.385,48.409],[27.3197,48.4436],[27.2864,48.3715],[27.0872,48.4132],[26.9952,48.3595],[26.775,48.4184],[26.7652,48.3536],[26.6959,48.3272],[26.5504,48.2161],[26.4687,48.2161],[26.3354,48.1617],[26.2683,48.0773],[26.2123,48.0509],[26.1844,47.9947],[25.8612,47.9704],[25.775,47.9394],[25.6257,47.9486],[25.3111,47.9143],[25.2213,47.8588],[25.1173,47.7691],[25.0401,47.7253],[24.9225,47.7263]]]},"properties":{"shapeISO":"UA-77","shapeName":"Chernivtsi Oblast"}},{"type":"Feature","geometry":{"type":"Polygon","coordinates":[[[31.1591,46.4097],[31.0474,46.3769],[31.0244,46.3014],[30.9678,46.2326],[30.9384,46.1494],[30.7796,46.0138],[30.6676,45.9599],[30.6479,45.9232],[30.4345,45.7166],[30.1764,45.5595],[30.0663,45.5059],[30.073,45.4348],[30.1658,45.4555],[30.3468,45.4303],[30.431,45.3784],[30.4805,45.3078],[30.4805,45.2033],[30.431,45.1325],[30.3131,45.0686],[30.2407,45.0549],[30.0935,45.0686],[29.9956,45.1144],[29.9521,45.1697],[29.6906,45.1917],[29.6567,45.333],[29.5919,45.3885],[29.4297,45.4426],[29.2382,45.4327],[29.179,45.4],[28.9659,45.331],[28.9419,45.2805],[28.8165,45.3363],[28.7926,45.2435],[28.7139,45.2236],[28.5612,45.2501],[28.349,45.3204],[28.2148,45.4707],[28.305,45.547],[28.5162,45.4999],[28.4912,45.5711],[28.5442,45.5798],[28.5039,45.6988],[28.5204,45.7373],[28.7094,45.7799],[28.6969,45.8179],[28.7861,45.8325],[28.7548,45.9275],[28.7765,45.9707],[28.9791,46.0035],[29.0055,46.0494],[28.9507,46.0937],[29.0675,46.1956],[28.9523,46.2595],[28.9969,46.3277],[28.9307,46.4575],[29.0255,46.4623],[29.0387,46.5062],[29.1639,46.5153],[29.2294,46.4584],[29.3868,46.4466],[29.4485,46.4986],[29.5662,46.4165],[29.5804,46.3608],[29.6776,46.3612],[29.6858,46.4261],[29.7763,46.4547],[29.8051,46.3855],[29.8866,46.3715],[29.9386,46.4005],[30.0911,46.3831],[30.1006,46.4365],[30.0224,46.4421],[29.9114,46.5127],[29.9599,46.6064],[29.9747,46.7521],[29.906,46.8204],[29.8841,46.8861],[29.7494,46.861],[29.731,46.9193],[29.6479,46.9194],[29.5958,46.9636],[29.6119,47.1002],[29.5799,47.1358],[29.5521,47.2514],[29.5987,47.2574],[29.5742,47.3704],[29.4877,47.3559],[29.4857,47.3059],[29.3984,47.3005],[29.3376,47.3706],[29.3175,47.4492],[29.1822,47.4491],[29.1169,47.5545],[29.2177,47.6123],[29.2486,47.7513],[29.2193,47.7984],[29.1753,47.9938],[29.0929,47.9831],[29.0251,47.9462],[28.9258,47.9601],[28.8394,48.0349],[28.8508,48.0787],[28.9262,48.0948],[28.9452,48.1568],[29.1341,48.1526],[29.2653,48.0942],[29.3949,48.1139],[29.5558,48.0984],[29.6702,48.1226],[29.6824,48.1881],[29.7808,48.2085],[29.8921,48.1842],[29.9301,48.2339],[30.0103,48.2085],[30.046,48.1532],[30.307,48.142],[30.2501,48.0898],[30.2252,48.0121],[30.2981,47.9229],[30.3345,47.8096],[30.4226,47.8212],[30.3894,47.7525],[30.4202,47.6349],[30.4718,47.6184],[30.6621,47.6349],[30.7749,47.6235],[30.7732,47.5463],[30.8522,47.5031],[30.9075,47.2774],[30.9972,47.2898],[31.0181,47.2393],[31.1705,47.2663],[31.1568,47.1817],[31.2695,47.1719],[31.305,47.0483],[31.2424,46.9913],[31.0182,46.9637],[31.0394,46.906],[31.1549,46.8368],[31.154,46.7469],[31.179,46.7091],[31.1591,46.4097]]]},"properties":{"shapeISO":"UA-51","shapeName":"Odessa Oblast"}},{"type":"Feature","geometry":{"type":"Polygon","coordinates":[[[33.0927,47.5788],[33.1378,47.4195],[33.1306,47.3286],[33.0971,47.2237],[33.0254,47.1765],[32.9614,47.1896],[32.9103,47.0939],[33.0686,47.0222],[33.0228,46.9729],[32.9497,46.9465],[32.9153,46.8833],[32.9491,46.8579],[32.6979,46.8226],[32.6879,46.8621],[32.5855,46.8558],[32.532,46.8238],[32.4633,46.8404],[32.3654,46.8293],[32.3416,46.7954],[32.2522,46.8196],[32.2187,46.7713],[32.0757,46.73],[32.087,46.6835],[31.9402,46.651],[31.8457,46.4979],[31.8072,46.479],[31.8306,46.3533],[31.3815,46.4076],[31.1591,46.4097],[31.179,46.7091],[31.154,46.7469],[31.1549,46.8368],[31.0394,46.906],[31.0182,46.9637],[31.2424,46.9913],[31.305,47.0483],[31.2695,47.1719],[31.1568,47.1817],[31.1705,47.2663],[31.0181,47.2393],[30.9972,47.2898],[30.9075,47.2774],[30.8522,47.5031],[30.7732,47.5463],[30.7749,47.6235],[30.6621,47.6349],[30.4718,47.6184],[30.4202,47.6349],[30.3894,47.7525],[30.4226,47.8212],[30.3345,47.8096],[30.2981,47.9229],[30.2252,48.0121],[30.2501,48.0898],[30.307,48.142],[30.3674,48.1752],[30.4687,48.1629],[30.527,48.1796],[30.6179,48.156],[30.6472,48.1852],[30.9305,48.1663],[30.9812,48.2222],[31.1634,48.2225],[31.2366,48.1169],[31.5825,48.1287],[31.7673,48.1021],[31.7291,48.0356],[31.7528,47.9438],[31.8439,47.9637],[31.8898,47.8656],[31.8382,47.7822],[32.0548,47.8173],[32.1169,47.7559],[32.2317,47.7604],[32.2365,47.8148],[32.3038,47.8239],[32.3648,47.7889],[32.6576,47.8196],[32.6856,47.873],[32.6518,47.9215],[32.6891,47.9826],[32.7956,47.9939],[32.9892,48.0485],[33.0045,47.9891],[33.014,47.9104],[33.0784,47.9205],[33.0549,47.8318],[33.0721,47.7389],[32.9723,47.7227],[32.9942,47.6302],[32.9614,47.5899],[33.0927,47.5788]]]},"properties":{"shapeISO":"UA-48","shapeName":"Mykolaiv Oblast"}},{"type":"Feature","geometry":{"type":"Polygon","coordinates":[[[32.7727,45.8266],[33.5407,46.012],[33.5912,46.0612],[33.5721,46.1026],[33.6356,46.1463],[33.6459,46.2302],[33.74,46.1852],[33.8113,46.2038],[34.0526,46.1091],[34.1175,46.1073],[34.1844,46.0669],[34.3295,46.0606],[34.4762,45.9441],[34.5612,45.9944],[34.6699,45.9676],[34.8022,45.9006],[34.7991,45.8105],[34.9751,45.762],[35.2334,45.7917],[35.387,45.6557],[35.4597,45.5603],[35.5765,45.4904],[35.6175,45.5646],[35.6761,45.6086],[35.7852,45.6433],[35.8882,45.6435],[35.9818,45.6167],[36.1354,45.6477],[36.3387,45.6715],[36.6684,45.6266],[36.6816,45.4566],[36.6635,45.3599],[36.603,45.3094],[36.5942,45.2525],[36.5305,45.1992],[36.568,45.0507],[36.6097,44.9407],[36.5091,44.8756],[36.2946,44.8282],[36.1963,44.8194],[36.1028,44.8336],[36.0516,44.8154],[35.8597,44.793],[35.7231,44.8074],[35.6322,44.8491],[35.5177,44.7682],[35.3976,44.7373],[35.3319,44.6681],[35.2307,44.6165],[35.1198,44.5863],[35.0012,44.5901],[34.9292,44.6109],[34.8085,44.6039],[34.6661,44.5472],[34.5679,44.4166],[34.3551,44.3032],[34.2724,44.2459],[33.9911,44.1872],[33.6966,44.191],[33.7619,44.3895],[33.9262,44.4213],[33.7801,44.6128],[33.73,44.6471],[33.7266,44.7166],[33.6161,44.712],[33.5867,44.8078],[33.5543,44.8402],[33.2952,44.9405],[33.1742,44.9555],[33.0456,45.0008],[32.8902,45.089],[32.8315,45.1508],[32.7486,45.1254],[32.6115,45.1132],[32.3624,45.1711],[32.2434,45.2629],[32.2052,45.3691],[32.223,45.4788],[32.2974,45.5749],[32.3822,45.633],[32.5891,45.7123],[32.7727,45.8266]]]},"properties":{"shapeISO":"UA-43","shapeName":"Autonomous Republic of Crimea"}},{"type":"Feature","geometry":{"type":"Polygon","coordinates":[[[27.817,49.7347],[27.9822,49.7805],[28.0928,49.772],[28.2974,49.8014],[28.3793,49.7805],[28.4202,49.8232],[28.6824,49.8022],[28.7509,49.8444],[28.8439,49.8602],[28.9534,49.8402],[28.9637,49.7554],[29.0048,49.7265],[28.9641,49.6723],[29.0269,49.5904],[29.2755,49.5896],[29.3799,49.6191],[29.4087,49.6593],[29.5055,49.6493],[29.5449,49.4845],[29.5895,49.4544],[29.5062,49.3953],[29.5368,49.3231],[29.5885,49.3199],[29.6395,49.2467],[29.7361,49.229],[29.72,49.1314],[29.6502,49.0966],[29.6304,49.0512],[29.6957,49.0005],[29.6525,48.9375],[29.7615,48.8472],[29.766,48.7864],[29.8595,48.7586],[29.8562,48.7139],[29.9781,48.6351],[29.9565,48.5839],[30.0201,48.5395],[29.9679,48.4718],[29.7872,48.3699],[29.7808,48.2085],[29.6824,48.1881],[29.6702,48.1226],[29.5558,48.0984],[29.3949,48.1139],[29.2653,48.0942],[29.1341,48.1526],[28.9452,48.1568],[28.9262,48.0948],[28.8508,48.0787],[28.8411,48.1255],[28.545,48.1694],[28.4538,48.079],[28.4334,48.1685],[28.3469,48.178],[28.3638,48.2369],[28.2317,48.2102],[28.1824,48.2553],[28.0824,48.2377],[28.0934,48.2937],[27.9043,48.3548],[27.8735,48.4046],[27.7485,48.458],[27.6822,48.4407],[27.5332,48.4694],[27.4786,48.5068],[27.4517,48.5965],[27.373,48.6306],[27.4137,48.7055],[27.415,48.8818],[27.3825,49.0079],[27.416,49.0546],[27.5938,49.1551],[27.6393,49.1675],[27.7404,49.1388],[27.789,49.1787],[27.8545,49.1695],[27.8591,49.3307],[27.8149,49.3555],[27.8274,49.4214],[27.7512,49.4394],[27.7433,49.531],[27.8105,49.6436],[27.7623,49.6968],[27.817,49.7347]]]},"properties":{"shapeISO":"UA-05","shapeName":"Vinnytsia Oblast"}},{"type":"Feature","geometry":{"type":"Polygon","coordinates":[[[26.2205,50.1797],[26.2737,50.1787],[26.3625,50.2512],[26.4712,50.2604],[26.6479,50.365],[26.7897,50.504],[27.0568,50.5516],[27.1959,50.5622],[27.3019,50.4928],[27.2492,50.3927],[27.3132,50.3402],[27.527,50.2256],[27.6082,50.215],[27.6789,50.1609],[27.6147,50.0861],[27.6745,50.0694],[27.6101,50.0062],[27.5457,50.0002],[27.641,49.8141],[27.781,49.7285],[27.817,49.7347],[27.7623,49.6968],[27.8105,49.6436],[27.7433,49.531],[27.7512,49.4394],[27.8274,49.4214],[27.8149,49.3555],[27.8591,49.3307],[27.8545,49.1695],[27.789,49.1787],[27.7404,49.1388],[27.6393,49.1675],[27.5938,49.1551],[27.416,49.0546],[27.3825,49.0079],[27.415,48.8818],[27.4137,48.7055],[27.373,48.6306],[27.3125,48.6],[27.2349,48.6061],[27.1094,48.5564],[26.9644,48.5761],[26.898,48.5469],[26.7899,48.5547],[26.7139,48.4974],[26.5963,48.4512],[26.5515,48.4653],[26.4943,48.5404],[26.4433,48.5386],[26.3238,48.6],[26.3075,48.6576],[26.2478,48.6679],[26.2458,48.7558],[26.194,48.9335],[26.2119,48.9829],[26.1834,49.0557],[26.2047,49.1007],[26.1832,49.1959],[26.2584,49.2638],[26.2261,49.3279],[26.2354,49.4005],[26.1423,49.5095],[26.2021,49.6013],[26.2725,49.6569],[26.1908,49.7142],[26.2436,49.7453],[26.2011,49.8663],[26.1328,49.8984],[26.1451,49.9599],[26.2269,50.0473],[26.1987,50.0978],[26.2205,50.1797]]]},"properties":{"shapeISO":"UA-68","shapeName":"Khmelnytskyi Oblast"}},{"type":"Feature","geometry":{"type":"Polygon","coordinates":[[[29.7361,49.229],[29.7608,49.1794],[29.8584,49.188],[29.9545,49.2503],[29.9442,49.3017],[30.0268,49.3327],[30.1892,49.2753],[30.3844,49.255],[30.413,49.3305],[30.5167,49.328],[30.6078,49.3703],[30.7086,49.3363],[30.909,49.3591],[31.0992,49.541],[31.2021,49.6753],[31.221,49.8323],[31.3099,49.892],[31.3741,49.8984],[31.3109,49.9927],[31.4367,49.9842],[31.422,49.9104],[31.475,49.8612],[31.5566,49.8748],[31.7147,49.8512],[31.8133,49.9662],[31.9176,49.9614],[31.9109,50.1005],[32.0141,50.2065],[32.1162,50.2286],[32.1765,50.1646],[32.2984,50.1423],[32.2616,50.0825],[32.3643,50.0343],[32.428,49.9604],[32.4023,49.8757],[32.4491,49.7965],[32.556,49.7731],[32.5735,49.7025],[32.7085,49.6503],[32.7474,49.5241],[32.6716,49.4867],[32.6789,49.4006],[32.6492,49.3559],[32.4963,49.3943],[32.4671,49.3276],[32.6583,49.2475],[32.764,49.2329],[32.8591,49.2447],[32.7573,49.1668],[32.8904,49.1266],[32.8279,49.0796],[32.8455,48.9807],[32.7335,48.9648],[32.668,48.9772],[32.5219,48.9389],[32.4977,49.0126],[32.3971,49.0262],[32.3486,49.0792],[32.2667,49.0815],[32.2181,48.9868],[32.1347,48.9661],[32.146,48.9123],[31.9189,48.9061],[31.8079,48.944],[31.6896,48.8964],[31.5948,48.9062],[31.5281,48.8042],[31.4243,48.748],[31.3169,48.7354],[31.2441,48.7679],[31.0687,48.7374],[30.9941,48.7655],[30.8972,48.747],[30.6985,48.7677],[30.6383,48.7523],[30.5709,48.6059],[30.5297,48.5657],[30.4032,48.5737],[30.3871,48.5263],[30.157,48.4848],[29.9679,48.4718],[30.0201,48.5395],[29.9565,48.5839],[29.9781,48.6351],[29.8562,48.7139],[29.8595,48.7586],[29.766,48.7864],[29.7615,48.8472],[29.6525,48.9375],[29.6957,49.0005],[29.6304,49.0512],[29.6502,49.0966],[29.72,49.1314],[29.7361,49.229]]]},"properties":{"shapeISO":"UA-71","shapeName":"Cherkasy Oblast"}},{"type":"Feature","geometry":{"type":"Polygon","coordinates":[[[32.1162,50.2286],[32.0907,50.2842],[32.1427,50.3488],[32.2906,50.3797],[32.339,50.4276],[32.4469,50.3981],[32.5264,50.3457],[32.75,50.3596],[32.9148,50.412],[33.0662,50.5199],[33.2212,50.5035],[33.3177,50.5199],[33.42,50.4827],[33.5724,50.4949],[33.7865,50.4608],[33.9549,50.547],[34.0406,50.5061],[34.219,50.5344],[34.252,50.4409],[34.3742,50.3716],[34.4001,50.3181],[34.5077,50.2849],[34.5707,50.2272],[34.5234,50.1774],[34.5729,50.1214],[34.6916,50.1102],[34.7002,50.1497],[34.8541,50.1626],[34.9408,50.1526],[34.9649,50.0746],[34.8561,49.9866],[34.9705,49.8853],[35.1401,49.8597],[35.2194,49.8297],[35.2077,49.7467],[35.2654,49.6852],[35.3447,49.665],[35.4334,49.6734],[35.4857,49.572],[35.41,49.5615],[35.4617,49.4837],[35.3317,49.5049],[35.3639,49.447],[35.3385,49.3647],[35.2882,49.2964],[35.0912,49.3006],[35.0368,49.3316],[34.9804,49.2502],[35.0179,49.1508],[34.9455,49.1928],[34.8466,49.1913],[34.7047,49.1297],[34.6242,49.1246],[34.5689,49.0878],[34.4159,49.0548],[34.3002,48.8958],[34.3089,48.7653],[34.249,48.7445],[34.1216,48.7932],[34.0105,48.867],[33.8943,48.9019],[33.8149,48.938],[33.7185,48.9402],[33.6651,48.9785],[33.5893,48.9168],[33.4761,48.952],[33.325,48.9614],[33.3279,49.0248],[33.2872,49.0839],[33.1627,49.095],[33.102,49.1852],[33.0331,49.1857],[32.8591,49.2447],[32.764,49.2329],[32.6583,49.2475],[32.4671,49.3276],[32.4963,49.3943],[32.6492,49.3559],[32.6789,49.4006],[32.6716,49.4867],[32.7474,49.5241],[32.7085,49.6503],[32.5735,49.7025],[32.556,49.7731],[32.4491,49.7965],[32.4023,49.8757],[32.428,49.9604],[32.3643,50.0343],[32.2616,50.0825],[32.2984,50.1423],[32.1765,50.1646],[32.1162,50.2286]]]},"properties":{"shapeISO":"UA-53","shapeName":"Poltava Oblast"}},{"type":"Feature","geometry":{"type":"Polygon","coordinates":[[[34.1395,47.4772],[33.9548,47.4576],[33.9067,47.5118],[33.6436,47.4845],[33.5884,47.5023],[33.5803,47.6002],[33.4737,47.5873],[33.4861,47.5439],[33.3265,47.5231],[33.2418,47.5304],[33.2085,47.5695],[33.0927,47.5788],[32.9614,47.5899],[32.9942,47.6302],[32.9723,47.7227],[33.0721,47.7389],[33.0549,47.8318],[33.0784,47.9205],[33.014,47.9104],[33.0045,47.9891],[33.037,48.0338],[33.1092,48.0425],[33.1538,48.0836],[33.2249,48.0923],[33.2718,48.1537],[33.4306,48.1699],[33.546,48.2349],[33.4618,48.3495],[33.489,48.4403],[33.4695,48.5337],[33.6093,48.5995],[33.7638,48.6264],[33.7503,48.6812],[33.6187,48.7277],[33.578,48.7802],[33.6742,48.8148],[33.8509,48.8028],[33.8943,48.9019],[34.0105,48.867],[34.1216,48.7932],[34.249,48.7445],[34.3089,48.7653],[34.3002,48.8958],[34.4159,49.0548],[34.5689,49.0878],[34.6242,49.1246],[34.7047,49.1297],[34.8466,49.1913],[34.9455,49.1928],[35.0179,49.1508],[35.1912,49.1403],[35.2182,49.1071],[35.3105,49.0878],[35.3521,49.041],[35.4775,48.9791],[35.5961,48.9867],[35.7523,48.9467],[35.932,48.9787],[35.9891,48.9694],[36.0437,48.9154],[36.0193,48.8547],[36.1592,48.7842],[36.143,48.7243],[36.258,48.6671],[36.2647,48.6131],[36.355,48.5396],[36.4829,48.6636],[36.5907,48.6028],[36.7389,48.6259],[36.7885,48.5668],[36.8596,48.569],[36.8298,48.4846],[36.8171,48.3126],[36.9121,48.309],[36.9369,48.1942],[36.8728,48.1839],[36.8965,48.0776],[36.8545,48.0346],[36.6508,48.0994],[36.5878,48.08],[36.5851,47.9566],[36.542,47.906],[36.5848,47.8474],[36.4491,47.8241],[36.3302,47.8203],[36.1017,47.8426],[36.1302,47.8903],[36.085,47.9303],[36.0525,48.0591],[35.9666,48.0948],[35.8169,48.0661],[35.7034,48.1402],[35.5237,48.0744],[35.295,48.1443],[35.1017,48.1316],[35.0389,48.0984],[34.9147,48.0909],[34.8757,48.0545],[34.8695,47.9824],[34.9191,47.9335],[34.864,47.8794],[34.8936,47.7602],[34.956,47.7123],[34.9057,47.6739],[34.9454,47.5296],[34.8623,47.5151],[34.7963,47.537],[34.5724,47.5616],[34.4689,47.5321],[34.3,47.5191],[34.1395,47.4772]]]},"properties":{"shapeISO":"UA-12","shapeName":"Dnipropetrovsk Oblast"}},{"type":"Feature","geometry":{"type":"Polygon","coordinates":[[[30.307,48.142],[30.046,48.1532],[30.0103,48.2085],[29.9301,48.2339],[29.8921,48.1842],[29.7808,48.2085],[29.7872,48.3699],[29.9679,48.4718],[30.157,48.4848],[30.3871,48.5263],[30.4032,48.5737],[30.5297,48.5657],[30.5709,48.6059],[30.6383,48.7523],[30.6985,48.7677],[30.8972,48.747],[30.9941,48.7655],[31.0687,48.7374],[31.2441,48.7679],[31.3169,48.7354],[31.4243,48.748],[31.5281,48.8042],[31.5948,48.9062],[31.6896,48.8964],[31.8079,48.944],[31.9189,48.9061],[32.146,48.9123],[32.1347,48.9661],[32.2181,48.9868],[32.2667,49.0815],[32.3486,49.0792],[32.3971,49.0262],[32.4977,49.0126],[32.5219,48.9389],[32.668,48.9772],[32.7335,48.9648],[32.8455,48.9807],[32.8279,49.0796],[32.8904,49.1266],[32.7573,49.1668],[32.8591,49.2447],[33.0331,49.1857],[33.102,49.1852],[33.1627,49.095],[33.2872,49.0839],[33.3279,49.0248],[33.325,48.9614],[33.4761,48.952],[33.5893,48.9168],[33.6651,48.9785],[33.7185,48.9402],[33.8149,48.938],[33.8943,48.9019],[33.8509,48.8028],[33.6742,48.8148],[33.578,48.7802],[33.6187,48.7277],[33.7503,48.6812],[33.7638,48.6264],[33.6093,48.5995],[33.4695,48.5337],[33.489,48.4403],[33.4618,48.3495],[33.546,48.2349],[33.4306,48.1699],[33.2718,48.1537],[33.2249,48.0923],[33.1538,48.0836],[33.1092,48.0425],[33.037,48.0338],[33.0045,47.9891],[32.9892,48.0485],[32.7956,47.9939],[32.6891,47.9826],[32.6518,47.9215],[32.6856,47.873],[32.6576,47.8196],[32.3648,47.7889],[32.3038,47.8239],[32.2365,47.8148],[32.2317,47.7604],[32.1169,47.7559],[32.0548,47.8173],[31.8382,47.7822],[31.8898,47.8656],[31.8439,47.9637],[31.7528,47.9438],[31.7291,48.0356],[31.7673,48.1021],[31.5825,48.1287],[31.2366,48.1169],[31.1634,48.2225],[30.9812,48.2222],[30.9305,48.1663],[30.6472,48.1852],[30.6179,48.156],[30.527,48.1796],[30.4687,48.1629],[30.3674,48.1752],[30.307,48.142]]]},"properties":{"shapeISO":"UA-35","shapeName":"Kirovohrad Oblast"}},{"type":"Feature","geometry":{"type":"Polygon","coordinates":[[[30.8276,50.4054],[30.6125,50.3376],[30.646,50.2982],[30.5862,50.2454],[30.3581,50.4452],[30.2517,50.4848],[30.3108,50.5551],[30.4468,50.5858],[30.5303,50.5362],[30.6481,50.5348],[30.7214,50.5859],[30.8159,50.5651],[30.755,50.5189],[30.7426,50.4585],[30.8276,50.4054]]]},"properties":{"shapeISO":"UA-30","shapeName":"Kyiv"}},{"type":"Feature","geometry":{"type":"Polygon","coordinates":[[[33.2952,44.9405],[33.5543,44.8402],[33.5867,44.8078],[33.6161,44.712],[33.7266,44.7166],[33.73,44.6471],[33.7801,44.6128],[33.9262,44.4213],[33.7619,44.3895],[33.6966,44.191],[33.4948,44.2506],[33.4203,44.2947],[33.2954,44.3348],[33.127,44.4802],[33.0948,44.547],[33.1126,44.6584],[33.1651,44.7182],[33.2463,44.7633],[33.2469,44.8354],[33.2952,44.9405]]]},"properties":{"shapeISO":"UA-40","shapeName":"Sevastopol"}}]}